OBJECT_NAME,OBJECT_ID,EPOCH,MEAN_MOTION,ECCENTRICITY,INCLINATION,RA_OF_ASC_NODE,ARG_OF_PERICENTER,MEAN_ANOMALY,EPHEMERIS_TYPE,CLASSIFICATION_TYPE,NORAD_CAT_ID,ELEMENT_SET_NO,REV_AT_EPOCH,BSTAR,MEAN_MOTION_DOT,MEAN_MOTION_DDOT
LEMUR-1,2014-033AL,2026-06-19T09:10:40.151424,14.85253735,.00496007,97.7880,320.1386,71.6277,289.0323,0,U,40044,999,64579,.18530071E-3,.157E-4,0
LEMUR-2-GREENBERG,2017-042N,2026-06-19T07:24:32.652864,15.31382691,.0008279,97.3823,350.9230,6.1746,353.9596,0,U,42837,999,48871,.47643551E-3,.14389E-3,0
LEMUR-2-ANDIS,2017-042P,2026-06-19T00:10:20.003808,15.34901289,.0007995,97.3678,350.8131,5.7583,354.3751,0,U,42838,999,48873,.48413824E-3,.16338E-3,0
LEMUR-2-MONSON,2017-042Q,2026-06-19T01:26:36.829536,15.28049146,.00060025,97.4081,350.6452,358.9199,1.2027,0,U,42839,999,48845,.40226899E-3,.10941E-3,0
LEMUR-2-FURIAUS,2017-042R,2026-06-19T05:43:35.626656,15.30308008,.00080577,97.3776,348.8037,62.8731,297.3331,0,U,42840,999,48852,.52299501E-3,.15285E-3,0
LEMUR-2-PETERG,2017-042S,2026-06-19T06:04:53.342688,15.33950101,.00030206,97.3993,355.2862,348.3943,11.7229,0,U,42841,999,48875,.55119099E-3,.18048E-3,0
LEMUR-2-DEMBITZ,2017-042T,2026-06-19T01:29:40.303392,15.30339757,.0006568,97.3827,351.6540,22.4740,337.6787,0,U,42842,999,48863,.44388642E-3,.12966E-3,0
LEMUR-2-ZACHARY,2017-042W,2026-06-19T12:19:35.672448,15.50432723,.00027131,97.3596,2.1994,23.6039,336.5337,0,U,42845,999,48956,.68613456E-3,.39087E-3,0
LEMUR-2-AMANDA-SVANTE,2021-034B,2026-06-19T16:55:33.421152,15.34420039,.0002667,97.5757,249.0573,199.9266,160.1872,0,U,48269,999,28144,.79019E-3,.26321E-3,0
LEMUR-2-SPECIAL-K,2021-034F,2026-06-19T16:58:34.970016,15.65103184,.0004477,97.5646,257.7483,225.7805,134.3087,0,U,48273,999,28208,.13669E-2,.136504E-2,0
LEMUR-2-EMBRIONOVIS,2023-084AQ,2026-06-19T08:23:03.937632,15.37593761,.00075874,97.6298,314.6314,311.4054,48.6537,0,U,56970,999,16801,.31328283E-3,.11485E-3,0
LEMUR-2-DEVERILL-M-T,2023-100F,2026-06-19T01:18:16.900992,15.39829166,.00061431,99.4465,209.3513,44.3176,315.8554,0,U,57391,999,16153,.51440121E-3,.20336E-3,0
LEMUR-2-BASS,2023-174D,2026-06-19T11:31:00.532128,15.43159048,.00078579,97.3843,255.2244,155.0851,205.0778,0,U,58259,999,14571,.35326803E-3,.15592E-3,0
LEMUR-2-JK0903EM1407,2023-174CJ,2026-06-19T20:27:08.109216,15.51795799,.0005635,97.3920,261.3974,112.9456,247.2392,0,U,58336,999,14614,.39553E-3,.23574E-3,0
LEMUR-2-MJR092620,2023-174CN,2026-06-19T11:46:21.023040,15.44945635,.00071008,97.3972,260.5619,110.9196,249.2814,0,U,58340,999,14600,.34659765E-3,.16247E-3,0
LEMUR-2-NIMBUS2000,2024-022A,2026-06-19T06:54:43.146432,15.40057591,.0010377,97.4106,20.3150,109.4188,250.8180,0,U,58899,999,13259,.41357889E-3,.16492E-3,0
LEMUR-2-VALHALLA,2024-022B,2026-06-19T11:30:40.044960,15.39731042,.00108884,97.4104,20.4986,105.1669,255.0782,0,U,58900,999,13262,.35769593E-3,.14098E-3,0
LEMUR-2-CAEL,2024-022E,2026-06-19T11:42:01.351296,15.41038176,.00092468,97.4086,21.4465,90.7126,269.5180,0,U,58903,999,13269,.3612033E-3,.14858E-3,0
LEMUR-2-JOHNNYTRUONG,2024-043BA,2026-06-19T07:55:31.802016,15.60603016,.00048643,97.5384,322.1659,169.6430,190.4928,0,U,59146,999,12837,.43978713E-3,.36354E-3,0
LEMUR-2-TOMATOKECHUP,2024-149D,2026-06-19T17:06:51.705216,15.36076565,.0001664,97.3796,252.7665,171.0094,189.1180,0,U,60471,999,10255,.2518E-3,.8768E-4,0
LEMUR-2-STELLA,2024-149BT,2026-06-19T17:30:06.253056,15.11852671,.0001467,97.6730,253.1954,96.6270,263.5126,0,U,60533,999,10088,.51284E-3,.8707E-4,0
LEMUR-2-MARHISYAM,2024-149BW,2026-06-19T20:13:46.552224,15.11305772,.0003297,97.6878,253.7612,113.0755,247.0822,0,U,60536,999,10088,.55253E-3,.9246E-4,0
LEMUR-2-AHMED-ASRAR,2024-149DN,2026-06-19T11:27:45.447840,15.12755595,.00016368,97.7001,255.4958,38.4313,321.7034,0,U,60576,999,10091,.551118E-3,.9602E-4,0
LEMUR-2-LLOYD,2024-149DP,2026-06-19T16:39:43.968960,15.09280814,.000506,97.6745,251.8245,132.8565,227.3089,0,U,60577,999,10077,.53184E-3,.8414E-4,0
LEMUR-2-SQUIRRELCOMM,2024-149DQ,2026-06-19T17:05:09.800736,15.07173606,.0006108,97.6706,251.6151,53.2688,306.9099,0,U,60578,999,10078,.36888E-3,.5489E-4,0
LEMUR-2-SIERRINI,2024-149DR,2026-06-19T17:37:43.574304,15.10988959,.0006031,97.6835,253.3380,157.7673,202.3819,0,U,60579,999,10084,.50693E-3,.8405E-4,0
LEMUR-2-WILSON,2025-009CP,2026-06-19T16:55:13.752192,14.95175856,.0004134,97.7028,249.1254,51.4159,308.7431,0,U,62694,999,7773,.19162E-3,.2048E-4,0
LEMUR-2-STAR-FOX,2025-009CR,2026-06-19T13:21:52.252992,15.02532511,.00040798,97.6952,252.1486,106.0755,254.0919,0,U,62696,999,7791,.47187978E-3,.6213E-4,0
LEMUR-2-ARIANNA,2025-009CU,2026-06-19T11:43:37.327008,15.02513904,.00044513,97.6892,251.8534,111.3467,248.8233,0,U,62699,999,7790,.48795126E-3,.6424E-4,0
LEMUR-2-ALISIA,2025-009DB,2026-06-19T17:34:42.796992,15.02796319,.000225,97.6941,252.8852,190.2361,169.8819,0,U,62706,999,10054,.43605E-3,.5776E-4,0
