LEMUR-1                 
1 40044U 14033AL  26170.38240916  .00001570  00000+0  18530-3 0  9994
2 40044  97.7880 320.1386 0049600  71.6277 289.0323 14.85253735645796
LEMUR-2-GREENBERG       
1 42837U 17042N   26170.30871126  .00014389  00000+0  47644-3 0  9994
2 42837  97.3823 350.9230 0008279   6.1746 353.9596 15.31382691488717
LEMUR-2-ANDIS           
1 42838U 17042P   26170.00717597  .00016338  00000+0  48414-3 0  9995
2 42838  97.3678 350.8131 0007995   5.7583 354.3751 15.34901289488736
LEMUR-2-MONSON          
1 42839U 17042Q   26170.06014849  .00010941  00000+0  40227-3 0  9990
2 42839  97.4081 350.6452 0006002 358.9199   1.2027 15.28049146488455
LEMUR-2-FURIAUS         
1 42840U 17042R   26170.23860679  .00015285  00000+0  52300-3 0  9992
2 42840  97.3776 348.8037 0008057  62.8731 297.3331 15.30308008488522
LEMUR-2-PETERG          
1 42841U 17042S   26170.25339517  .00018048  00000+0  55119-3 0  9998
2 42841  97.3993 355.2862 0003020 348.3943  11.7229 15.33950101488753
LEMUR-2-DEMBITZ         
1 42842U 17042T   26170.06227203  .00012966  00000+0  44389-3 0  9996
2 42842  97.3827 351.6540 0006568  22.4740 337.6787 15.30339757488639
LEMUR-2-ZACHARY         
1 42845U 17042W   26170.51360732  .00039087  00000+0  68613-3 0  9993
2 42845  97.3596   2.1994 0002713  23.6039 336.5337 15.50432723489569
LEMUR-2-AMANDA-SVANTE   
1 48269U 21034B   26170.70524793  .00026321  00000+0  79019-3 0  9994
2 48269  97.5757 249.0573 0002667 199.9266 160.1872 15.34420039281449
LEMUR-2-SPECIAL-K       
1 48273U 21034F   26170.70734919  .00136504  00000+0  13669-2 0  9995
2 48273  97.5646 257.7483 0004477 225.7805 134.3087 15.65103184282080
LEMUR-2-EMBRIONOVIS     
1 56970U 23084AQ  26170.34935113  .00011485  00000+0  31328-3 0  9997
2 56970  97.6298 314.6314 0007587 311.4054  48.6537 15.37593761168013
LEMUR-2-DEVERILL-M-T    
1 57391U 23100F   26170.05436228  .00020336  00000+0  51440-3 0  9997
2 57391  99.4465 209.3513 0006143  44.3176 315.8554 15.39829166161533
LEMUR-2-BASS            
1 58259U 23174D   26170.47986727  .00015592  00000+0  35327-3 0  9996
2 58259  97.3843 255.2244 0007857 155.0851 205.0778 15.43159048145718
LEMUR-2-JK0903EM1407    
1 58336U 23174CJ  26170.85217719  .00023574  00000+0  39553-3 0  9996
2 58336  97.3920 261.3974 0005635 112.9456 247.2392 15.51795799146149
LEMUR-2-MJR092620       
1 58340U 23174CN  26170.49052110  .00016247  00000+0  34660-3 0  9996
2 58340  97.3972 260.5619 0007100 110.9196 249.2814 15.44945635146000
LEMUR-2-NIMBUS2000      
1 58899U 24022A   26170.28799938  .00016492  00000+0  41358-3 0  9995
2 58899  97.4106  20.3150 0010377 109.4188 250.8180 15.40057591132599
LEMUR-2-VALHALLA        
1 58900U 24022B   26170.47963015  .00014098  00000+0  35770-3 0  9999
2 58900  97.4104  20.4986 0010888 105.1669 255.0782 15.39731042132629
LEMUR-2-CAEL            
1 58903U 24022E   26170.48751564  .00014858  00000+0  36120-3 0  9991
2 58903  97.4086  21.4465 0009246  90.7126 269.5180 15.41038176132697
LEMUR-2-JOHNNYTRUONG    
1 59146U 24043BA  26170.33022919  .00036354  00000+0  43979-3 0  9998
2 59146  97.5384 322.1659 0004864 169.6430 190.4928 15.60603016128374
LEMUR-2-TOMATOKECHUP    
1 60471U 24149D   26170.71309844  .00008768  00000+0  25180-3 0  9997
2 60471  97.3796 252.7665 0001664 171.0094 189.1180 15.36076565102558
LEMUR-2-STELLA          
1 60533U 24149BT  26170.72923904  .00008707  00000+0  51284-3 0  9993
2 60533  97.6730 253.1954 0001467  96.6270 263.5126 15.11852671100887
LEMUR-2-MARHISYAM       
1 60536U 24149BW  26170.84289991  .00009246  00000+0  55253-3 0  9999
2 60536  97.6878 253.7612 0003297 113.0755 247.0822 15.11305772100880
LEMUR-2-AHMED-ASRAR     
1 60576U 24149DN  26170.47760935  .00009602  00000+0  55112-3 0  9994
2 60576  97.7001 255.4958 0001636  38.4313 321.7034 15.12755595100912
LEMUR-2-LLOYD           
1 60577U 24149DP  26170.69425890  .00008414  00000+0  53184-3 0  9994
2 60577  97.6745 251.8245 0005060 132.8565 227.3089 15.09280814100777
LEMUR-2-SQUIRRELCOMM    
1 60578U 24149DQ  26170.71191899  .00005489  00000+0  36888-3 0  9998
2 60578  97.6706 251.6151 0006108  53.2688 306.9099 15.07173606100789
LEMUR-2-SIERRINI        
1 60579U 24149DR  26170.73453211  .00008405  00000+0  50693-3 0  9991
2 60579  97.6835 253.3380 0006031 157.7673 202.3819 15.10988959100840
LEMUR-2-WILSON          
1 62694U 25009CP  26170.70502028  .00002048  00000+0  19162-3 0  9998
2 62694  97.7028 249.1254 0004134  51.4159 308.7431 14.95175856 77737
LEMUR-2-STAR-FOX        
1 62696U 25009CR  26170.55685478  .00006213  00000+0  47188-3 0  9991
2 62696  97.6952 252.1486 0004079 106.0755 254.0919 15.02532511 77910
LEMUR-2-ARIANNA         
1 62699U 25009CU  26170.48862647  .00006424  00000+0  48795-3 0  9990
2 62699  97.6892 251.8534 0004451 111.3467 248.8233 15.02513904 77903
LEMUR-2-ALISIA          
1 62706U 25009DB  26170.73243978  .00005776  00000+0  43605-3 0  9991
2 62706  97.6941 252.8852 0002250 190.2361 169.8819 15.02796319100547
